{"type": "FeatureCollection", "features": [{"type": "Feature", "properties": {"name": "呼和浩特市", "adcode": 150100, "admin_level": "province", "level": "city"}, "geometry": {"type": "Point", "coordinates": [111.670801, 40.818311]}}, {"type": "Feature", "properties": {"name": "包头市", "adcode": 150200, "admin_level": "city", "level": "city"}, "geometry": {"type": "Point", "coordinates": [109.840405, 40.658168]}}, {"type": "Feature", "properties": {"name": "乌海市", "adcode": 150300, "admin_level": "city", "level": "city"}, "geometry": {"type": "Point", "coordinates": [106.825563, 39.673734]}}, {"type": "Feature", "properties": {"name": "赤峰市", "adcode": 150400, "admin_level": "city", "level": "city"}, "geometry": {"type": "Point", "coordinates": [118.956806, 42.275317]}}, {"type": "Feature", "properties": {"name": "通辽市", "adcode": 150500, "admin_level": "city", "level": "city"}, "geometry": {"type": "Point", "coordinates": [122.263119, 43.617429]}}, {"type": "Feature", "properties": {"name": "鄂尔多斯市", "adcode": 150600, "admin_level": "city", "level": "city"}, "geometry": {"type": "Point", "coordinates": [109.99029, 39.817179]}}, {"type": "Feature", "properties": {"name": "呼伦贝尔市", "adcode": 150700, "admin_level": "city", "level": "city"}, "geometry": {"type": "Point", "coordinates": [119.758168, 49.215333]}}, {"type": "Feature", "properties": {"name": "巴彦淖尔市", "adcode": 150800, "admin_level": "city", "level": "city"}, "geometry": {"type": "Point", "coordinates": [107.416959, 40.757402]}}, {"type": "Feature", "properties": {"name": "乌兰察布市", "adcode": 150900, "admin_level": "city", "level": "city"}, "geometry": {"type": "Point", "coordinates": [113.114543, 41.034126]}}, {"type": "Feature", "properties": {"name": "兴安盟", "adcode": 152200, "admin_level": "city", "level": "city"}, "geometry": {"type": "Point", "coordinates": [122.070317, 46.076268]}}, {"type": "Feature", "properties": {"name": "锡林郭勒盟", "adcode": 152500, "admin_level": "city", "level": "city"}, "geometry": {"type": "Point", "coordinates": [116.090996, 43.944018]}}, {"type": "Feature", "properties": {"name": "阿拉善盟", "adcode": 152900, "admin_level": "city", "level": "city"}, "geometry": {"type": "Point", "coordinates": [105.706422, 38.844814]}}]}